{
  "type": "FeatureCollection",
  "features": [
    {
      "type": "Feature",
      "properties": {
        "norad_id": 41866,
        "name": "GOES 16",
        "group": "weather",
        "lat": 0.021430714627268165,
        "lon": 102.96796333791495,
        "alt_km": 35799.51337643484,
        "timestamp": "2025-12-27T07:26:24.863783+00:00",
        "meta_object_name": "GOES 16",
        "meta_object_id": "2016-071A",
        "meta_epoch": "2025-12-26T15:57:36.330912",
        "meta_mean_motion": 1.00271631,
        "meta_eccentricity": 0.00032738,
        "meta_inclination": 0.0797,
        "meta_ra_of_asc_node": 100.8609,
        "meta_arg_of_pericenter": 167.1325,
        "meta_mean_anomaly": 322.1538,
        "meta_ephemeris_type": 0,
        "meta_classification_type": "U",
        "meta_norad_cat_id": 41866,
        "meta_element_set_no": 999,
        "meta_rev_at_epoch": 3337,
        "meta_bstar": 0,
        "meta_mean_motion_dot": -6.9e-07,
        "meta_mean_motion_ddot": 0,
        "tle_line1": "1 41866U 16071A   25360.66500383 -.00000069  00000+0  00000+0 0  9991",
        "tle_line2": "2 41866   0.0797 100.8609 0003273 167.1325 322.1538  1.00271631 33375"
      },
      "geometry": {
        "type": "Point",
        "coordinates": [
          102.96796333791495,
          0.021430714627268165
        ]
      }
    },
    {
      "type": "Feature",
      "properties": {
        "norad_id": 41882,
        "name": "FENGYUN 4A",
        "group": "weather",
        "lat": -1.7705966838974385,
        "lon": -28.781150904037613,
        "alt_km": 35794.21491824039,
        "timestamp": "2025-12-27T07:26:24.863796+00:00",
        "meta_object_name": "FENGYUN 4A",
        "meta_object_id": "2016-077A",
        "meta_epoch": "2025-12-26T09:22:21.494784",
        "meta_mean_motion": 1.00262391,
        "meta_eccentricity": 0.0004534,
        "meta_inclination": 1.8816,
        "meta_ra_of_asc_node": 82.2577,
        "meta_arg_of_pericenter": 143.1389,
        "meta_mean_anomaly": 133.8992,
        "meta_ephemeris_type": 0,
        "meta_classification_type": "U",
        "meta_norad_cat_id": 41882,
        "meta_element_set_no": 999,
        "meta_rev_at_epoch": 3319,
        "meta_bstar": 0,
        "meta_mean_motion_dot": -3.36e-06,
        "meta_mean_motion_ddot": 0,
        "tle_line1": "1 41882U 16077A   25360.39052656 -.00000336  00000+0  00000+0 0  9997",
        "tle_line2": "2 41882   1.8816  82.2577 0004534 143.1389 133.8992  1.00262391 33190"
      },
      "geometry": {
        "type": "Point",
        "coordinates": [
          -28.781150904037613,
          -1.7705966838974385
        ]
      }
    },
    {
      "type": "Feature",
      "properties": {
        "norad_id": 41884,
        "name": "CYGFM05",
        "group": "weather",
        "lat": -15.921935723567012,
        "lon": -72.18114731760913,
        "alt_km": 416.27402952681496,
        "timestamp": "2025-12-27T07:26:24.863808+00:00",
        "meta_object_name": "CYGFM05",
        "meta_object_id": "2016-078A",
        "meta_epoch": "2025-12-26T23:49:30.572544",
        "meta_mean_motion": 15.48184285,
        "meta_eccentricity": 0.00102851,
        "meta_inclination": 34.96,
        "meta_ra_of_asc_node": 313.9917,
        "meta_arg_of_pericenter": 305.1243,
        "meta_mean_anomaly": 54.8515,
        "meta_ephemeris_type": 0,
        "meta_classification_type": "U",
        "meta_norad_cat_id": 41884,
        "meta_element_set_no": 999,
        "meta_rev_at_epoch": 50197,
        "meta_bstar": 0.00043724724,
        "meta_mean_motion_dot": 0.00023781,
        "meta_mean_motion_ddot": 0,
        "tle_line1": "1 41884U 16078A   25360.99271496  .00023781  00000+0  43725-3 0  9994",
        "tle_line2": "2 41884  34.9600 313.9917 0010285 305.1243  54.8515 15.48184285501972"
      },
      "geometry": {
        "type": "Point",
        "coordinates": [
          -72.18114731760913,
          -15.921935723567012
        ]
      }
    },
    {
      "type": "Feature",
      "properties": {
        "norad_id": 41885,
        "name": "CYGFM04",
        "group": "weather",
        "lat": -2.1528082099012544,
        "lon": -76.81908428842793,
        "alt_km": 407.44787506955436,
        "timestamp": "2025-12-27T07:26:24.863819+00:00",
        "meta_object_name": "CYGFM04",
        "meta_object_id": "2016-078B",
        "meta_epoch": "2025-12-26T22:11:15.551520",
        "meta_mean_motion": 15.50983578,
        "meta_eccentricity": 0.00088157,
        "meta_inclination": 34.9345,
        "meta_ra_of_asc_node": 288.7999,
        "meta_arg_of_pericenter": 329.7289,
        "meta_mean_anomaly": 30.2923,
        "meta_ephemeris_type": 0,
        "meta_classification_type": "U",
        "meta_norad_cat_id": 41885,
        "meta_element_set_no": 999,
        "meta_rev_at_epoch": 50214,
        "meta_bstar": 0.00044456338,
        "meta_mean_motion_dot": 0.000267,
        "meta_mean_motion_ddot": 0,
        "tle_line1": "1 41885U 16078B   25360.92448555  .00026700  00000+0  44456-3 0  9996",
        "tle_line2": "2 41885  34.9345 288.7999 0008815 329.7289  30.2923 15.50983578502142"
      },
      "geometry": {
        "type": "Point",
        "coordinates": [
          -76.81908428842793,
          -2.1528082099012544
        ]
      }
    },
    {
      "type": "Feature",
      "properties": {
        "norad_id": 41886,
        "name": "CYGFM02",
        "group": "weather",
        "lat": 34.64092502967262,
        "lon": 6.09414651644058,
        "alt_km": 405.38363634113193,
        "timestamp": "2025-12-27T07:26:24.863829+00:00",
        "meta_object_name": "CYGFM02",
        "meta_object_id": "2016-078C",
        "meta_epoch": "2025-12-26T21:49:26.477472",
        "meta_mean_motion": 15.52406909,
        "meta_eccentricity": 0.00103908,
        "meta_inclination": 34.9434,
        "meta_ra_of_asc_node": 287.0388,
        "meta_arg_of_pericenter": 331.5166,
        "meta_mean_anomaly": 28.4988,
        "meta_ephemeris_type": 0,
        "meta_classification_type": "U",
        "meta_norad_cat_id": 41886,
        "meta_element_set_no": 999,
        "meta_rev_at_epoch": 50227,
        "meta_bstar": 0.00044587417,
        "meta_mean_motion_dot": 0.0002821,
        "meta_mean_motion_ddot": 0,
        "tle_line1": "1 41886U 16078C   25360.90933423  .00028210  00000+0  44587-3 0  9991",
        "tle_line2": "2 41886  34.9434 287.0388 0010390 331.5166  28.4988 15.52406909502276"
      },
      "geometry": {
        "type": "Point",
        "coordinates": [
          6.09414651644058,
          34.64092502967262
        ]
      }
    },
    {
      "type": "Feature",
      "properties": {
        "norad_id": 41887,
        "name": "CYGFM01",
        "group": "weather",
        "lat": 24.615931363756147,
        "lon": -4.8268418285486465,
        "alt_km": 417.33988145019975,
        "timestamp": "2025-12-27T07:26:24.863840+00:00",
        "meta_object_name": "CYGFM01",
        "meta_object_id": "2016-078D",
        "meta_epoch": "2025-12-26T21:57:28.245600",
        "meta_mean_motion": 15.48776981,
        "meta_eccentricity": 0.00101257,
        "meta_inclination": 34.9433,
        "meta_ra_of_asc_node": 316.7493,
        "meta_arg_of_pericenter": 297.0946,
        "meta_mean_anomaly": 62.8743,
        "meta_ephemeris_type": 0,
        "meta_classification_type": "U",
        "meta_norad_cat_id": 41887,
        "meta_element_set_no": 999,
        "meta_rev_at_epoch": 50190,
        "meta_bstar": 0.00044565484,
        "meta_mean_motion_dot": 0.00024753,
        "meta_mean_motion_ddot": 0,
        "tle_line1": "1 41887U 16078D   25360.91491025  .00024753  00000+0  44565-3 0  9994",
        "tle_line2": "2 41887  34.9433 316.7493 0010125 297.0946  62.8743 15.48776981501906"
      },
      "geometry": {
        "type": "Point",
        "coordinates": [
          -4.8268418285486465,
          24.615931363756147
        ]
      }
    },
    {
      "type": "Feature",
      "properties": {
        "norad_id": 41888,
        "name": "CYGFM08",
        "group": "weather",
        "lat": 11.550492742288498,
        "lon": 99.96473202003905,
        "alt_km": 421.2080419756239,
        "timestamp": "2025-12-27T07:26:24.863851+00:00",
        "meta_object_name": "CYGFM08",
        "meta_object_id": "2016-078E",
        "meta_epoch": "2025-12-26T23:01:35.997024",
        "meta_mean_motion": 15.50023245,
        "meta_eccentricity": 0.00111832,
        "meta_inclination": 34.9458,
        "meta_ra_of_asc_node": 299.2811,
        "meta_arg_of_pericenter": 321.4092,
        "meta_mean_anomaly": 38.583,
        "meta_ephemeris_type": 0,
        "meta_classification_type": "U",
        "meta_norad_cat_id": 41888,
        "meta_element_set_no": 999,
        "meta_rev_at_epoch": 50214,
        "meta_bstar": 0.00044623968,
        "meta_mean_motion_dot": 0.00025919,
        "meta_mean_motion_ddot": 0,
        "tle_line1": "1 41888U 16078E   25360.95944441  .00025919  00000+0  44624-3 0  9995",
        "tle_line2": "2 41888  34.9458 299.2811 0011183 321.4092  38.5830 15.50023245502147"
      },
      "geometry": {
        "type": "Point",
        "coordinates": [
          99.96473202003905,
          11.550492742288498
        ]
      }
    }
  ]
}